{
    "links": {
        "self": "http://www.neowsapp.com/rest/v1/neo/54049352?api_key=iIulBulltgU6a56xZRHN4H3l9WmuAYTsLGpBGhQ2"
    },
    "id": "54049352",
    "neo_reference_id": "54049352",
    "name": "(2020 OK3)",
    "designation": "2020 OK3",
    "nasa_jpl_url": "http://ssd.jpl.nasa.gov/sbdb.cgi?sstr=54049352",
    "absolute_magnitude_h": 22.031,
    "estimated_diameter": {
        "kilometers": {
            "estimated_diameter_min": 0.104316973,
            "estimated_diameter_max": 0.2332598429
        },
        "meters": {
            "estimated_diameter_min": 104.3169730245,
            "estimated_diameter_max": 233.2598428899
        },
        "miles": {
            "estimated_diameter_min": 0.0648195418,
            "estimated_diameter_max": 0.1449409018
        },
        "feet": {
            "estimated_diameter_min": 342.2472977779,
            "estimated_diameter_max": 765.2882229469
        }
    },
    "is_potentially_hazardous_asteroid": false,
    "close_approach_data": [
        {
            "close_approach_date": "2020-08-02",
            "close_approach_date_full": "2020-Aug-02 11:21",
            "epoch_date_close_approach": 1596367260000,
            "relative_velocity": {
                "kilometers_per_second": "19.5496759499",
                "kilometers_per_hour": "70378.8334197419",
                "miles_per_hour": "43730.6701323946"
            },
            "miss_distance": {
                "astronomical": "0.1521178248",
                "lunar": "59.1738338472",
                "kilometers": "22756502.579113176",
                "miles": "14140235.0112507888"
            },
            "orbiting_body": "Earth"
        },
        {
            "close_approach_date": "2020-10-09",
            "close_approach_date_full": "2020-Oct-09 09:00",
            "epoch_date_close_approach": 1602234000000,
            "relative_velocity": {
                "kilometers_per_second": "22.1851376628",
                "kilometers_per_hour": "79866.4955860969",
                "miles_per_hour": "49625.9344379278"
            },
            "miss_distance": {
                "astronomical": "0.0304832428",
                "lunar": "11.8579814492",
                "kilometers": "4560228.193572836",
                "miles": "2833594.4039676968"
            },
            "orbiting_body": "Venus"
        },
        {
            "close_approach_date": "2057-07-19",
            "close_approach_date_full": "2057-Jul-19 18:59",
            "epoch_date_close_approach": 2762794740000,
            "relative_velocity": {
                "kilometers_per_second": "26.6556586744",
                "kilometers_per_hour": "95960.3712276679",
                "miles_per_hour": "59626.0428886584"
            },
            "miss_distance": {
                "astronomical": "0.1151709198",
                "lunar": "44.8014878022",
                "kilometers": "17229324.288020826",
                "miles": "10705805.6777703588"
            },
            "orbiting_body": "Earth"
        }
    ],
    "orbital_data": {
        "orbit_id": "3",
        "orbit_determination_date": "2020-09-13 07:22:40",
        "first_observation_date": "2020-07-22",
        "last_observation_date": "2020-07-26",
        "data_arc_in_days": 4,
        "observations_used": 45,
        "orbit_uncertainty": "9",
        "minimum_orbit_intersection": ".0436894",
        "jupiter_tisserand_invariant": "2.890",
        "epoch_osculation": "2459053.5",
        "eccentricity": ".7895117634444005",
        "semi_major_axis": "2.560916591967142",
        "inclination": "4.527993784773634",
        "ascending_node_longitude": "268.4988541776273",
        "orbital_period": "1496.895827155835",
        "perihelion_distance": ".5390428174091394",
        "perihelion_argument": "126.7569664952633",
        "aphelion_distance": "4.582790366525145",
        "perihelion_time": "2459109.047307577881",
        "mean_anomaly": "346.6410004188252",
        "mean_motion": ".2404976976146798",
        "equinox": "J2000",
        "orbit_class": {
            "orbit_class_type": "APO",
            "orbit_class_description": "Near-Earth asteroid orbits which cross the Earth’s orbit similar to that of 1862 Apollo",
            "orbit_class_range": "a (semi-major axis) > 1.0 AU; q (perihelion) < 1.017 AU"
        }
    },
    "is_sentry_object": false
}